# From MPC114600
C/2017 U2 (Fuls),e,95.3869,149.7068,147.8455,2814,0.0000066,0.99761461,0.0000,08/28.1870/2017,2000,g  9.0,4.0
# From MPC114600
P/2017 U3 (PANSTARRS),e,15.9187,165.1108,296.5784,4.927665,0.0901036,0.09901394,87.0388,12/05.0/2021,2000,g 11.0,4.0
# From MPEC 2021-P47
C/2017 U4 (PANSTARRS),h,09/22.5985/2018,158.2091,245.9301,158.9903,1.001135,7.720527,2000,7.0,4.0
# From MPC114600
C/2017 U5 (PANSTARRS),e,18.9785,163.0863,261.9968,16.88459,0.0142059,0.74429770,20.5587,12/05.0/2021,2000,g 12.0,4.0
# From MPEC 2021-TD0
C/2017 U7 (PANSTARRS),h,09/14.4479/2019,142.5956,276.2475,326.3495,1.000643,6.425045,2000,8.3,2.0
# From MPC114600
C/2017 W2 (Leonard),e,98.2003,312.8359,168.9531,13.63420,0.0195776,0.71040934,29.2725,12/05.0/2021,2000,g 11.0,4.0
# From MPC114601
P/2017 W3 (Gibbs),e,18.1666,210.2528,327.8437,7.838723,0.0449093,0.50680401,61.7918,12/05.0/2021,2000,g 10.5,4.0
# From MPEC 2021-R75
C/2017 X1 (PANSTARRS),e,31.3148,251.1359,283.2418,31.17815,0.0056615,0.85025313,7.1865,12/05.0/2021,2000,g 10.0,4.0
# From MPC117069
C/2017 Y1 (PANSTARRS),e,55.2622,307.5189,134.2608,1756,0.0000134,0.99788924,0.0000,08/31.3728/2017,2000,g 11.5,4.0
# From MPEC 2021-W31
C/2017 Y2 (PANSTARRS),h,11/04.8975/2020,128.4176,65.9955,147.9136,1.000884,4.632675,2000,15.0,4.0
# From MPC111770
P/2017 Y3 (Leonard),e,27.5567,153.8413,67.6124,9.837391,0.0319436,0.86981218,44.5309,12/05.0/2021,2000,g 16.5,4.0
# From MPC114601
C/2018 A1 (PANSTARRS),e,53.6152,336.6612,96.2118,25.09828,0.0078386,0.90395772,11.8057,12/05.0/2021,2000,g 12.5,4.0
# From MPEC 2021-P47
C/2018 A3 (ATLAS),e,139.5367,194.2928,86.3671,418.2439,0.0001152,0.99216733,0.0000,01/12.0982/2019,2000,g  8.5,4.0
# From MPC114601
C/2018 A4 (PANSTARRS),e,3.1489,97.6129,355.9886,12.18877,0.0231614,0.80344424,30.0252,12/05.0/2021,2000,g 14.0,4.0
# From MPC109147
P/2018 A5 (PANSTARRS),e,23.5900,87.8096,359.5163,5.631866,0.0737438,0.52264260,113.1121,12/05.0/2021,2000,g 15.0,4.0
# From MPEC 2021-W31
C/2018 A6 (Gibbs),e,77.0543,340.3805,264.4442,15.15818,0.0167007,0.80089389,14.6296,12/05.0/2021,2000,g  9.0,4.0
# From MPC118841
C/2018 B1 (Lemmon),e,162.4205,133.1903,68.3319,28504,0.0000002,0.99982035,0.0000,03/28.7277/2018,2000,g  9.0,4.0
# From MPC114601
P/2018 C1 (Lemmon-Read),e,5.1159,270.3623,235.7062,5.653804,0.0733150,0.53233014,101.1341,12/05.0/2021,2000,g 13.5,4.0
# From MPC114601
C/2018 C2 (Lemmon),h,06/01.1546/2018,34.4617,91.1795,134.0928,1.000426,1.959996,2000,13.0,4.0
# From MPEC 2021-U31
C/2018 DO4 (Lemmon),e,160.4556,251.3594,176.2396,25.48876,0.0076592,0.90538822,6.4367,12/05.0/2021,2000,g 11.0,4.0
# From MPC114602
C/2018 E1 (ATLAS),e,72.5163,146.8670,299.3397,53.87524,0.0024924,0.94992397,3.3085,12/05.0/2021,2000,g 10.5,4.0
# From MPC114602
C/2018 E2 (Barros),e,97.6699,67.1791,277.4511,3790,0.0000042,0.99896602,0.0000,12/24.0006/2017,2000,g 10.5,4.0
# From MPC114602
C/2018 EN4 (NEOWISE),e,81.8925,136.1288,35.0747,18.10735,0.0127915,0.91946738,16.3611,12/05.0/2021,2000,g 15.0,4.0
# From MPC114602
C/2018 EF9 (Lemmon),e,84.6189,172.5548,72.6225,501.4074,0.0000878,0.99689061,0.0000,05/22.2454/2018,2000,g 18.0,2.0
# From MPEC 2021-R75
C/2018 F1 (Grauer),e,46.0767,177.2756,71.6177,262.6920,0.0002315,0.98859705,0.0000,12/13.1723/2018,2000,g 11.5,4.0
# From MPC110084
C/2018 F3 (Johnson),p,08/15.2314/2017,105.5348,293.0113,2.483172,173.0311,2000,13.0,4.0
# From MPEC 2021-W31
C/2018 F4 (PANSTARRS),h,12/03.9713/2019,78.0862,26.5157,263.2316,1.000849,3.441429,2000,11.0,6.0
# From MPEC 2021-W31
C/2018 F4-A,h,12/03.9599/2019,78.0863,26.5159,263.2284,1.000798,3.441300,2000,11.0,6.0
# From MPEC 2021-W31
C/2018 F4-B,h,12/03.8959/2019,78.0871,26.5155,263.2134,1.000893,3.441080,2000,11.0,6.0
# From MPC114602
P/2018 H2 (PANSTARRS),e,7.3917,68.2964,119.9420,4.388469,0.1072098,0.54071010,151.5064,12/05.0/2021,2000,g 16.6,2.0
# From MPC114602
C/2018 K1 (Weiland),e,164.1936,260.0945,325.1659,30.10213,0.0059677,0.93744317,7.9843,12/05.0/2021,2000,g 14.9,4.0
# From MPEC 2021-R75
C/2018 KJ3 (Lemmon),e,136.6995,91.6198,217.6766,933.4649,0.0000346,0.99611140,0.0000,09/09.8644/2019,2000,g 12.2,2.0
# From MPC114602
P/2018 L1 (PANSTARRS),e,10.5874,268.6305,18.0202,3.652135,0.1412160,0.48247335,157.9579,12/05.0/2021,2000,g 15.0,4.0
# From MPEC 2021-P47
C/2018 L2 (ATLAS),e,67.3362,243.0183,56.2970,261.8552,0.0002326,0.99345483,0.0000,12/02.6408/2018,2000,g 10.0,4.0
# From MPC114603
P/2018 L4 (PANSTARRS),e,26.6253,145.1526,140.6084,4.943017,0.0896842,0.65977754,109.6261,12/05.0/2021,2000,g 17.5,4.0
# From MPC119996
P/2018 L5 (Leonard),e,2.2081,219.0849,93.8899,3.628382,0.1426049,0.36462924,186.7516,12/05.0/2021,2000,g 14.5,4.0
# From MPC117070
C/2018 M1 (Catalina),e,37.3022,339.4083,14.1938,21.42160,0.0099409,0.93917813,12.3606,12/05.0/2021,2000,g 15.5,4.0
# From MPC112393
C/2018 N1 (NEOWISE),e,159.4357,292.4712,354.6814,371.8691,0.0001374,0.99647510,0.0000,08/02.1730/2018,2000,g 15.5,4.0
# From MPEC 2021-W31
C/2018 N2 (ASASSN),h,11/11.0497/2019,77.5377,25.2240,24.4253,1.000337,3.125429,2000,6.0,4.0
# From MPC114603
C/2018 O1 (ATLAS),e,154.0273,87.6943,162.6490,28.01656,0.0066463,0.94429067,7.9168,12/05.0/2021,2000,g 17.0,4.0
# From MPC114603
P/2018 P3 (PANSTARRS),e,8.9113,59.1665,305.9129,3.005359,0.1891732,0.41685256,217.8442,12/05.0/2021,2000,g 14.5,4.0
# From MPC114603
P/2018 P4 (PANSTARRS),e,23.1095,353.0625,8.3064,6.677385,0.0571208,0.45064753,64.1172,12/05.0/2021,2000,g 12.0,4.0
# From MPEC 2021-P47
C/2018 P5 (PANSTARRS),e,7.2498,216.2253,131.8191,12.82214,0.0214666,0.64278317,21.7110,12/05.0/2021,2000,g 11.0,4.0
# From MPC118841
C/2018 R3 (Lemmon),e,69.7289,324.6397,112.7852,1576,0.0000158,0.99918343,0.0000,06/07.3920/2019,2000,g  9.5,4.0
# From MPC112393
C/2018 R4 (Fuls),e,11.6803,298.4651,345.3157,336.8039,0.0001595,0.99489960,0.0000,03/03.3676/2018,2000,g 14.0,4.0
# From MPC114603
C/2018 R5 (Lemmon),e,103.7494,171.1151,178.1022,22.81561,0.0090439,0.84106166,9.5859,12/05.0/2021,2000,g 11.5,4.0
# From MPEC 2021-U31
C/2018 U1 (Lemmon),h,11/03.0946/2021,108.3000,75.4803,180.4659,1.001396,4.992960,2000,5.0,4.0
# From MPC114604
C/2018 V1 (Machholz-Fujikawa-Iwamoto),h,12/03.0211/2018,144.0611,128.9084,88.9091,1.000331,0.387765,2000,12.0,4.0
# From MPC115884
C/2018 V2 (ATLAS),e,159.1677,357.0815,318.9483,25.04673,0.0078628,0.90101914,8.6893,12/05.0/2021,2000,g 15.0,4.0
# From MPC114604
P/2018 VN2 (Leonard),e,18.2546,226.4820,138.7823,4.064284,0.1202896,0.47877995,153.6938,12/05.0/2021,2000,g 15.0,4.0
# From MPEC 2021-P47
A/2018 V3,e,164.9764,308.6626,3.5625,124.4422,0.0007100,0.98922096,0.0000,09/08.7661/2019,2000,g 15.7,2.0
# From MPC114604
C/2018 V4 (Africano),e,69.0091,78.3360,359.9261,203.8254,0.0003387,0.98432134,0.0000,03/01.3730/2019,2000,g 12.5,4.0
# From MPEC 2021-P47
P/2018 V5 (Trujillo-Sheppard),e,10.5882,171.2865,260.6591,8.955096,0.0367789,0.47495090,42.6317,12/05.0/2021,2000,g 12.5,4.0
# From MPEC 2021-P47
C/2018 W1 (Catalina),e,83.3073,233.6147,251.2376,21.67903,0.0097644,0.93724474,9.1623,12/05.0/2021,2000,g 15.5,2.0
# From MPEC 2021-P47
C/2018 W2 (Africano),h,09/05.5111/2019,116.6226,181.8270,157.9962,1.000408,1.456753,2000,9.5,4.0
# From MPC119996
C/2018 X2 (Fitzsimmons),e,23.0692,340.8321,162.0138,143.2437,0.0005749,0.98516244,0.0000,07/08.2437/2019,2000,g 12.0,4.0
# From MPC114604
C/2018 X3 (PANSTARRS),e,43.3813,78.8785,359.7335,12.36994,0.0226544,0.78221526,24.2483,12/05.0/2021,2000,g 14.5,4.0
# From MPC118842
C/2018 Y1 (Iwamoto),e,160.3993,147.5130,357.9810,136.5905,0.0006174,0.99060015,0.0000,02/06.7796/2019,2000,g 11.5,4.0
# From MPC114605
P/2018 Y2 (Africano),e,11.6824,297.2520,162.2834,7.457014,0.0484013,0.47870878,51.7190,12/05.0/2021,2000,g 11.5,4.0
# From MPC114605
P/2019 A1 (PANSTARRS),e,13.7449,312.2968,150.7382,5.119883,0.0850774,0.56847608,97.9609,12/05.0/2021,2000,g 16.0,4.0
# From MPEC 2021-P47
P/2019 A2 (ATLAS),e,14.8599,139.4700,323.9451,5.718537,0.0720737,0.38148209,80.0635,12/05.0/2021,2000,g 10.5,4.0
# From MPEC 2021-P47
P/2019 A3 (PANSTARRS),e,15.3719,31.2923,325.5449,3.146049,0.1766265,0.26589034,215.4702,12/05.0/2021,2000,g 16.0,4.0
# From MPC114605
P/2019 A4 (PANSTARRS),e,13.3091,119.2786,342.2308,2.615842,0.2329630,0.08739262,255.0562,12/05.0/2021,2000,g 15.0,4.0
# From MPEC 2021-P47
C/2019 A5 (PANSTARRS),e,67.5594,146.6277,355.9025,21.54085,0.0098585,0.70659444,8.9834,12/05.0/2021,2000,g  9.5,4.0
# From MPC114605
P/2019 A6 (Lemmon-PANSTARRS),e,33.2387,280.2461,156.1815,5.360056,0.0794237,0.63927569,94.8088,12/05.0/2021,2000,g 16.0,4.0
# From MPC115884
P/2019 A8 (PANSTARRS),e,2.3862,119.1539,59.6094,4.061882,0.1203963,0.31046748,135.3571,12/05.0/2021,2000,g 16.0,4.0
# From MPC118842
C/2019 A9 (PANSTARRS),e,84.1765,278.3848,237.9393,39.33761,0.0039948,0.96362421,3.4467,12/05.0/2021,2000,g 15.0,4.0
# From MPC114606
C/2019 B1 (Africano),e,123.3690,290.4264,174.8138,140.8204,0.0005898,0.98866236,0.0000,03/19.4048/2019,2000,g 16.0,4.0
# From MPC115885
P/2019 B2 (Groeller),e,16.9647,175.8483,0.5455,3.886734,0.1286255,0.36972321,117.0387,12/05.0/2021,2000,g 14.5,4.0
# From MPEC 2021-WD8
C/2019 B3 (PANSTARRS),h,01/20.3162/2021,66.5355,358.4363,263.9347,1.001600,6.823368,2000,5.5,4.0
# From MPEC 2021-P47
C/2019 C1 (ATLAS),e,36.0371,212.3858,319.1572,689.6208,0.0000544,0.99045806,0.0000,05/05.1353/2020,2000,g 10.0,4.0
# From MPC118842
C/2019 D1 (Flewelling),e,34.0533,231.7001,70.5818,143.0290,0.0005762,0.98894691,0.0000,05/11.7997/2019,2000,g 13.0,4.0
# From MPEC 2021-WD8
C/2019 E3 (ATLAS),h,11/13.6315/2023,84.2976,347.2536,280.6419,1.002388,10.313952,2000,2.5,4.0
# From MPEC 2021-WD8
C/2019 F1 (ATLAS-Africano),h,06/22.9361/2021,54.1748,38.7199,251.1493,1.003733,3.595853,2000,5.5,4.0
# From MPEC 2021-P47
C/2019 F2 (ATLAS),e,19.2234,175.5803,11.5065,16.68336,0.0144637,0.86551361,11.8355,12/05.0/2021,2000,g 12.0,4.0
# From MPEC 2021-P47
A/2019 G2,e,159.2054,208.1509,82.6162,574.6579,0.0000715,0.99601327,0.0000,12/09.7658/2019,2000,g 16.5,2.0
# From MPEC 2021-N06
A/2019 G4,h,09/16.1333/2018,138.3819,130.4638,287.8597,1.002035,5.855897,2000,13.0,2.0
